LEMUR-2-ANDIS           
1 42838U 17042P   26068.55941107  .00023598  00000+0  79875-3 0  9998
2 42838  97.3659 249.7950 0009101   4.3248 355.8070 15.30557934473198
STARLINK-31010          
1 58519U 23191M   26067.33336806 -.00005558  00000+0 -19262-3 0  9994
2 58519  42.9996 111.1992 0001070 282.2634  18.6268 15.27575293  5796
